[{"OBJECT_NAME":"TIANQI-16","OBJECT_ID":"2025-105A","EPOCH":"2026-03-09T12:21:56.157984","MEAN_MOTION":13.99115329,"ECCENTRICITY":0.0012645,"INCLINATION":44.9833,"RA_OF_ASC_NODE":105.8163,"ARG_OF_PERICENTER":266.1357,"MEAN_ANOMALY":93.803,"EPHEMERIS_TYPE":0,"CLASSIFICATION_TYPE":"U","NORAD_CAT_ID":64058,"ELEMENT_SET_NO":999,"REV_AT_EPOCH":4123,"BSTAR":0.00015431,"MEAN_MOTION_DOT":9.7e-7,"MEAN_MOTION_DDOT":0},{"OBJECT_NAME":"FENGYUN 1C DEB","OBJECT_ID":"1999-025AHG","EPOCH":"2026-03-09T00:52:56.894304","MEAN_MOTION":13.79647727,"ECCENTRICITY":0.0183244,"INCLINATION":99.2709,"RA_OF_ASC_NODE":106.7078,"ARG_OF_PERICENTER":354.0305,"MEAN_ANOMALY":5.8664,"EPHEMERIS_TYPE":0,"CLASSIFICATION_TYPE":"U","NORAD_CAT_ID":30494,"ELEMENT_SET_NO":999,"REV_AT_EPOCH":95676,"BSTAR":0.0013293043,"MEAN_MOTION_DOT":1.512e-5,"MEAN_MOTION_DDOT":0}]
